[{"OBJECT_NAME":"STARLINK-3400","OBJECT_ID":"2022-005AA","EPOCH":"2026-03-09T20:49:04.458144","MEAN_MOTION":15.08832435,"ECCENTRICITY":0.000125,"INCLINATION":53.2183,"RA_OF_ASC_NODE":298.3269,"ARG_OF_PERICENTER":93.2131,"MEAN_ANOMALY":266.9004,"EPHEMERIS_TYPE":0,"CLASSIFICATION_TYPE":"U","NORAD_CAT_ID":51128,"ELEMENT_SET_NO":999,"REV_AT_EPOCH":22875,"BSTAR":1.3723335e-5,"MEAN_MOTION_DOT":-6.9e-7,"MEAN_MOTION_DDOT":0},{"OBJECT_NAME":"SL-24 PLAT","OBJECT_ID":"2014-033AR","EPOCH":"2026-03-09T22:47:27.152448","MEAN_MOTION":15.0919716,"ECCENTRICITY":0.00052059,"INCLINATION":98.0981,"RA_OF_ASC_NODE":61.9435,"ARG_OF_PERICENTER":212.2329,"MEAN_ANOMALY":147.8581,"EPHEMERIS_TYPE":0,"CLASSIFICATION_TYPE":"U","NORAD_CAT_ID":40049,"ELEMENT_SET_NO":999,"REV_AT_EPOCH":63724,"BSTAR":0.00046923352,"MEAN_MOTION_DOT":7.393e-5,"MEAN_MOTION_DDOT":0}]
